CCSDS_OMM_VERS = 2.0
CREATION_DATE  = 
ORIGINATOR     = 

OBJECT_NAME    = CYGNUS NG-23
OBJECT_ID      = 2025-208A
CENTER_NAME    = EARTH
REF_FRAME      = TEME
TIME_SYSTEM    = UTC
MEAN_ELEMENT_THEORY = SGP/SGP4

EPOCH          = 2025-12-24T05:07:18.077088
MEAN_MOTION    = 15.49773492
ECCENTRICITY   = .00031703
INCLINATION    = 51.6319
RA_OF_ASC_NODE = 85.6574
ARG_OF_PERICENTER = 294.2840
MEAN_ANOMALY   = 65.7818

EPHEMERIS_TYPE = 0
CLASSIFICATION_TYPE = U
NORAD_CAT_ID   = 65616
ELEMENT_SET_NO = 999
REV_AT_EPOCH   = 22
BSTAR          = .22737508E-3
MEAN_MOTION_DOT = .1244E-3
MEAN_MOTION_DDOT = 0

CCSDS_OMM_VERS = 2.0
CREATION_DATE  = 
ORIGINATOR     = 

OBJECT_NAME    = DRAGONFLY
OBJECT_ID      = 1998-067XH
CENTER_NAME    = EARTH
REF_FRAME      = TEME
TIME_SYSTEM    = UTC
MEAN_ELEMENT_THEORY = SGP/SGP4

EPOCH          = 2025-12-23T20:25:05.087712
MEAN_MOTION    = 15.75691261
ECCENTRICITY   = .0007924
INCLINATION    = 51.6249
RA_OF_ASC_NODE = 78.7101
ARG_OF_PERICENTER = 343.6586
MEAN_ANOMALY   = 16.4157

EPHEMERIS_TYPE = 0
CLASSIFICATION_TYPE = U
NORAD_CAT_ID   = 65729
ELEMENT_SET_NO = 999
REV_AT_EPOCH   = 1491
BSTAR          = .11534E-2
MEAN_MOTION_DOT = .184258E-2
MEAN_MOTION_DDOT = 0

CCSDS_OMM_VERS = 2.0
CREATION_DATE  = 
ORIGINATOR     = 

OBJECT_NAME    = 1998-067XK
OBJECT_ID      = 1998-067XK
CENTER_NAME    = EARTH
REF_FRAME      = TEME
TIME_SYSTEM    = UTC
MEAN_ELEMENT_THEORY = SGP/SGP4

EPOCH          = 2025-12-24T05:09:13.323456
MEAN_MOTION    = 15.67922599
ECCENTRICITY   = .0005005
INCLINATION    = 51.6290
RA_OF_ASC_NODE = 78.9215
ARG_OF_PERICENTER = 318.0201
MEAN_ANOMALY   = 42.0411

EPHEMERIS_TYPE = 0
CLASSIFICATION_TYPE = U
NORAD_CAT_ID   = 65731
ELEMENT_SET_NO = 999
REV_AT_EPOCH   = 1494
BSTAR          = .97770635E-3
MEAN_MOTION_DOT = .111192E-2
MEAN_MOTION_DDOT = 0

CCSDS_OMM_VERS = 2.0
CREATION_DATE  = 
ORIGINATOR     = 

OBJECT_NAME    = RSP-03
OBJECT_ID      = 1998-067XL
CENTER_NAME    = EARTH
REF_FRAME      = TEME
TIME_SYSTEM    = UTC
MEAN_ELEMENT_THEORY = SGP/SGP4

EPOCH          = 2025-12-24T06:13:41.867904
MEAN_MOTION    = 15.71560433
ECCENTRICITY   = .00059657
INCLINATION    = 51.6259
RA_OF_ASC_NODE = 77.7058
ARG_OF_PERICENTER = 324.9345
MEAN_ANOMALY   = 35.1260

EPHEMERIS_TYPE = 0
CLASSIFICATION_TYPE = U
NORAD_CAT_ID   = 65732
ELEMENT_SET_NO = 999
REV_AT_EPOCH   = 1497
BSTAR          = .11365704E-2
MEAN_MOTION_DOT = .151258E-2
MEAN_MOTION_DDOT = 0

CCSDS_OMM_VERS = 2.0
CREATION_DATE  = 
ORIGINATOR     = 

OBJECT_NAME    = GHS-01
OBJECT_ID      = 1998-067XM
CENTER_NAME    = EARTH
REF_FRAME      = TEME
TIME_SYSTEM    = UTC
MEAN_ELEMENT_THEORY = SGP/SGP4

EPOCH          = 2025-12-23T11:05:04.304832
MEAN_MOTION    = 15.79591896
ECCENTRICITY   = .00088003
INCLINATION    = 51.6283
RA_OF_ASC_NODE = 79.8731
ARG_OF_PERICENTER = 346.0913
MEAN_ANOMALY   = 13.9844

EPHEMERIS_TYPE = 0
CLASSIFICATION_TYPE = U
NORAD_CAT_ID   = 65733
ELEMENT_SET_NO = 999
REV_AT_EPOCH   = 1487
BSTAR          = .14327729E-2
MEAN_MOTION_DOT = .275731E-2
MEAN_MOTION_DDOT = 0

CCSDS_OMM_VERS = 2.0
CREATION_DATE  = 
ORIGINATOR     = 

OBJECT_NAME    = YOTSUBA-KULOVER
OBJECT_ID      = 1998-067XN
CENTER_NAME    = EARTH
REF_FRAME      = TEME
TIME_SYSTEM    = UTC
MEAN_ELEMENT_THEORY = SGP/SGP4

EPOCH          = 2025-12-24T05:48:16.557984
MEAN_MOTION    = 15.60971780
ECCENTRICITY   = .00023493
INCLINATION    = 51.6293
RA_OF_ASC_NODE = 82.1031
ARG_OF_PERICENTER = 352.2605
MEAN_ANOMALY   = 7.8352

EPHEMERIS_TYPE = 0
CLASSIFICATION_TYPE = U
NORAD_CAT_ID   = 65941
ELEMENT_SET_NO = 999
REV_AT_EPOCH   = 1165
BSTAR          = .86929736E-3
MEAN_MOTION_DOT = .74548E-3
MEAN_MOTION_DDOT = 0

CCSDS_OMM_VERS = 2.0
CREATION_DATE  = 
ORIGINATOR     = 

OBJECT_NAME    = BOTAN
OBJECT_ID      = 1998-067XP
CENTER_NAME    = EARTH
REF_FRAME      = TEME
TIME_SYSTEM    = UTC
MEAN_ELEMENT_THEORY = SGP/SGP4

EPOCH          = 2025-12-23T23:07:45.899616
MEAN_MOTION    = 15.65195853
ECCENTRICITY   = .00032883
INCLINATION    = 51.6282
RA_OF_ASC_NODE = 82.4941
ARG_OF_PERICENTER = 330.2787
MEAN_ANOMALY   = 29.8020

EPHEMERIS_TYPE = 0
CLASSIFICATION_TYPE = U
NORAD_CAT_ID   = 65942
ELEMENT_SET_NO = 999
REV_AT_EPOCH   = 1162
BSTAR          = .10936719E-2
MEAN_MOTION_DOT = .111413E-2
MEAN_MOTION_DDOT = 0

CCSDS_OMM_VERS = 2.0
CREATION_DATE  = 
ORIGINATOR     = 

OBJECT_NAME    = E-KAGAKU-1
OBJECT_ID      = 1998-067XQ
CENTER_NAME    = EARTH
REF_FRAME      = TEME
TIME_SYSTEM    = UTC
MEAN_ELEMENT_THEORY = SGP/SGP4

EPOCH          = 2025-12-22T10:46:55.533504
MEAN_MOTION    = 15.60710313
ECCENTRICITY   = .00012968
INCLINATION    = 51.6319
RA_OF_ASC_NODE = 91.1385
ARG_OF_PERICENTER = 295.9007
MEAN_ANOMALY   = 64.1852

EPHEMERIS_TYPE = 0
CLASSIFICATION_TYPE = U
NORAD_CAT_ID   = 65943
ELEMENT_SET_NO = 999
REV_AT_EPOCH   = 1137
BSTAR          = .86344374E-3
MEAN_MOTION_DOT = .73283E-3
MEAN_MOTION_DDOT = 0

CCSDS_OMM_VERS = 2.0
CREATION_DATE  = 
ORIGINATOR     = 

OBJECT_NAME    = HRC MONOBLOCK CAMERA
OBJECT_ID      = 1998-067XR
CENTER_NAME    = EARTH
REF_FRAME      = TEME
TIME_SYSTEM    = UTC
MEAN_ELEMENT_THEORY = SGP/SGP4

EPOCH          = 2025-12-23T23:10:15.977280
MEAN_MOTION    = 15.54901889
ECCENTRICITY   = .0002152
INCLINATION    = 51.6306
RA_OF_ASC_NODE = 85.5033
ARG_OF_PERICENTER = 238.9680
MEAN_ANOMALY   = 121.1100

EPHEMERIS_TYPE = 0
CLASSIFICATION_TYPE = U
NORAD_CAT_ID   = 66052
ELEMENT_SET_NO = 999
REV_AT_EPOCH   = 1058
BSTAR          = .5004E-3
MEAN_MOTION_DOT = .33738E-3
MEAN_MOTION_DDOT = 0

CCSDS_OMM_VERS = 2.0
CREATION_DATE  = 
ORIGINATOR     = 

OBJECT_NAME    = HTV-X1
OBJECT_ID      = 2025-241A
CENTER_NAME    = EARTH
REF_FRAME      = TEME
TIME_SYSTEM    = UTC
MEAN_ELEMENT_THEORY = SGP/SGP4

EPOCH          = 2025-12-24T05:07:18.077088
MEAN_MOTION    = 15.49773492
ECCENTRICITY   = .00031703
INCLINATION    = 51.6319
RA_OF_ASC_NODE = 85.6574
ARG_OF_PERICENTER = 294.2840
MEAN_ANOMALY   = 65.7818

EPHEMERIS_TYPE = 0
CLASSIFICATION_TYPE = U
NORAD_CAT_ID   = 66174
ELEMENT_SET_NO = 999
REV_AT_EPOCH   = 51
BSTAR          = .22737508E-3
MEAN_MOTION_DOT = .1244E-3
MEAN_MOTION_DDOT = 0

CCSDS_OMM_VERS = 2.0
CREATION_DATE  = 
ORIGINATOR     = 

OBJECT_NAME    = SZ-21 MODULE
OBJECT_ID      = 2025-246C
CENTER_NAME    = EARTH
REF_FRAME      = TEME
TIME_SYSTEM    = UTC
MEAN_ELEMENT_THEORY = SGP/SGP4

EPOCH          = 2025-12-24T05:36:50.034816
MEAN_MOTION    = 15.63078368
ECCENTRICITY   = .00048386
INCLINATION    = 41.4770
RA_OF_ASC_NODE = 305.9006
ARG_OF_PERICENTER = 322.6697
MEAN_ANOMALY   = 37.3806

EPHEMERIS_TYPE = 0
CLASSIFICATION_TYPE = U
NORAD_CAT_ID   = 66515
ELEMENT_SET_NO = 999
REV_AT_EPOCH   = 624
BSTAR          = .31978683E-3
MEAN_MOTION_DOT = .29746E-3
MEAN_MOTION_DDOT = 0

CCSDS_OMM_VERS = 2.0
CREATION_DATE  = 
ORIGINATOR     = 

OBJECT_NAME    = SHENZHOU-22
OBJECT_ID      = 2025-272A
CENTER_NAME    = EARTH
REF_FRAME      = TEME
TIME_SYSTEM    = UTC
MEAN_ELEMENT_THEORY = SGP/SGP4

EPOCH          = 2025-12-24T05:49:05.894976
MEAN_MOTION    = 15.59630763
ECCENTRICITY   = .00081096
INCLINATION    = 41.4687
RA_OF_ASC_NODE = 306.8504
ARG_OF_PERICENTER = 132.6319
MEAN_ANOMALY   = 227.5205

EPHEMERIS_TYPE = 0
CLASSIFICATION_TYPE = U
NORAD_CAT_ID   = 66645
ELEMENT_SET_NO = 999
REV_AT_EPOCH   = 26550
BSTAR          = .22952509E-3
MEAN_MOTION_DOT = .18555E-3
MEAN_MOTION_DDOT = 0

