CYGNUS NG-23            
1 65616U 25208A   25358.21340367  .00012440  00000+0  22738-3 0  9995
2 65616  51.6319  85.6574 0003170 294.2840  65.7818 15.49773492   226
DRAGONFLY               
1 65729U 98067XH  25357.85075333  .00184258  00000+0  11534-2 0  9998
2 65729  51.6249  78.7101 0007924 343.6586  16.4157 15.75691261 14911
1998-067XK              
1 65731U 98067XK  25358.21473754  .00111192  00000+0  97771-3 0  9996
2 65731  51.6290  78.9215 0005005 318.0201  42.0411 15.67922599 14949
RSP-03                  
1 65732U 98067XL  25358.25951236  .00151258  00000+0  11366-2 0  9999
2 65732  51.6259  77.7058 0005965 324.9345  35.1260 15.71560433 14975
GHS-01                  
1 65733U 98067XM  25357.46185538  .00275731  00000+0  14328-2 0  9990
2 65733  51.6283  79.8731 0008800 346.0913  13.9844 15.79591896 14877
YOTSUBA-KULOVER         
1 65941U 98067XN  25358.24185831  .00074548  00000+0  86930-3 0  9996
2 65941  51.6293  82.1031 0002349 352.2605   7.8352 15.60971780 11651
BOTAN                   
1 65942U 98067XP  25357.96372569  .00111413  00000+0  10937-2 0  9997
2 65942  51.6282  82.4941 0003288 330.2787  29.8020 15.65195853 11620
E-KAGAKU-1              
1 65943U 98067XQ  25356.44925386  .00073283  00000+0  86344-3 0  9999
2 65943  51.6319  91.1385 0001296 295.9007  64.1852 15.60710313 11376
HRC MONOBLOCK CAMERA    
1 66052U 98067XR  25357.96546270  .00033738  00000+0  50040-3 0  9995
2 66052  51.6306  85.5033 0002152 238.9680 121.1100 15.54901889 10582
HTV-X1                  
1 66174U 25241A   25358.21340367  .00012440  00000+0  22738-3 0  9992
2 66174  51.6319  85.6574 0003170 294.2840  65.7818 15.49773492   518
SZ-21 MODULE            
1 66515U 25246C   25358.23391244  .00029746  00000+0  31979-3 0  9992
2 66515  41.4770 305.9006 0004838 322.6697  37.3806 15.63078368  6245
SHENZHOU-22             
1 66645U 25272A   25358.24242934  .00018555  00000+0  22953-3 0  9995
2 66645  41.4687 306.8504 0008109 132.6319 227.5205 15.59630763265504
